*******************************************************************************
JPL/HORIZONS               595 Polyxena (A906 FL)          2020-Jun-22 09:15:29
Rec #:     595 (+COV) Soln.date: 2020-May-20_01:08:59   # obs: 2678 (1906-2020)
 
IAU76/J2000 helio. ecliptic osc. elements (au, days, deg., period=Julian yrs):
 
  EPOCH=  2455563.5 ! 2011-Jan-02.00 (TDB)         Residual RMS= .29331
   EC= .05662960568742006  QR= 3.02462403429688    TP= 2455508.0380704361
   OM= 24.21843880159331   W=  275.7647207114703   IN= 17.8899016718718
   A= 3.206189268321144    MA= 9.521717991645104   ADIST= 3.387754502345408
   PER= 5.74106            N= .171680246           ANGMOM= .030752366
   DAN= 3.17783            DDN= 3.21419            L= 300.2739401
   B= -17.7963927          MOID= 2.0782001         TP= 2010-Nov-07.5380704361
 
Asteroid physical parameters (km, seconds, rotational period in hours):
   GM= n.a.                RAD= 45.3235            ROTPER= 11.801
   H= 7.9                  G= .150                 B-V= n.a.
                           ALBEDO= .145            STYP= n.a.
 
ASTEROID comments: 
1: soln ref.= JPL#78, OCC=0
2: source=ORB
*******************************************************************************
 
 
*******************************************************************************
Ephemeris / WWW_USER Mon Jun 22 09:15:29 2020 Pasadena, USA      / Horizons
*******************************************************************************
Target body name: 595 Polyxena (A906 FL)          {source: JPL#78}
Center body name: Solar System Barycenter (0)     {source: DE431}
Center-site name: BODY CENTER
*******************************************************************************
Start time      : A.D. 1969-Jun-28 00:00:00.0000 TDB
Stop  time      : A.D. 2071-May-04 00:00:00.0000 TDB
Step-size       : 7200 minutes
*******************************************************************************
Center geodetic : 0.00000000,0.00000000,0.0000000 {E-lon(deg),Lat(deg),Alt(km)}
Center cylindric: 0.00000000,0.00000000,0.0000000 {E-lon(deg),Dxy(km),Dz(km)}
Center radii    : (undefined)                                                  
Small perturbers: Yes                             {source: SB431-N16}
Output units    : AU-D
Output type     : GEOMETRIC cartesian states
Output format   : 2 (position and velocity)
Reference frame : Ecliptic of J2000.0
*******************************************************************************
Initial IAU76/J2000 heliocentric ecliptic osculating elements (au, days, deg.):
  EPOCH=  2455563.5 ! 2011-Jan-02.00 (TDB)         Residual RMS= .29331        
   EC= .05662960568742006  QR= 3.02462403429688    TP= 2455508.0380704361      
   OM= 24.21843880159331   W=  275.7647207114703   IN= 17.8899016718718        
  Equivalent ICRF heliocentric equatorial cartesian coordinates (au, au/d):
   X= 1.914930535995702E+00  Y=-1.634834539202114E+00  Z=-1.680982793803734E+00
  VX= 7.826713647064375E-03 VY= 5.550147337062428E-03 VZ= 3.336407703416171E-03
Asteroid physical parameters (km, seconds, rotational period in hours):        
   GM= n.a.                RAD= 45.3235            ROTPER= 11.801              
   H= 7.9                  G= .150                 B-V= n.a.                   
                           ALBEDO= .145            STYP= n.a.                  
*******************************************************************************
            JDTDB,            Calendar Date (TDB),        delta-T,                      X,                      Y,                      Z,                     VX,                     VY,                     VZ,
******************************************************************************************************************************************************************************************************************
$$SOE
2458880.500000000, A.D. 2020-Feb-01 00:00:00.0000,      69.184782, -2.988401760337618E+00,  1.381575086014586E+00,  7.926808330279073E-01, -3.853141342435230E-03, -8.040682420860926E-03, -1.862700688795102E-03,
2458885.500000000, A.D. 2020-Feb-06 00:00:00.0000,      69.184909, -3.007380764989933E+00,  1.341241181415780E+00,  7.832916438287046E-01, -3.738312771378002E-03, -8.092633743556022E-03, -1.892921985986161E-03,
2458890.500000000, A.D. 2020-Feb-11 00:00:00.0000,      69.185027, -3.025783424050671E+00,  1.300651215728805E+00,  7.737521480311109E-01, -3.622605806353503E-03, -8.143104779152959E-03, -1.922822365305238E-03,
2458895.500000000, A.D. 2020-Feb-16 00:00:00.0000,      69.185138, -3.043605386220678E+00,  1.259812621473973E+00,  7.640639646679342E-01, -3.506036748223127E-03, -8.192083107760239E-03, -1.952396049230380E-03,
2458900.500000000, A.D. 2020-Feb-21 00:00:00.0000,      69.185242, -3.060842382196439E+00,  1.218732893058700E+00,  7.542287416615401E-01, -3.388622094884918E-03, -8.239556394782455E-03, -1.981637259498430E-03,
2458905.500000000, A.D. 2020-Feb-26 00:00:00.0000,      69.185337, -3.077490225662797E+00,  1.177419586345788E+00,  7.442481558269756E-01, -3.270378544266951E-03, -8.285512393003661E-03, -2.010540217346121E-03,
2458910.500000000, A.D. 2020-Mar-02 00:00:00.0000,      69.185421, -3.093544814300000E+00,  1.135880318211248E+00,  7.341239128736341E-01, -3.151322997022770E-03, -8.329938944739813E-03, -2.039099143872822E-03,
2458915.500000000, A.D. 2020-Mar-07 00:00:00.0000,      69.185493, -3.109002130803505E+00,  1.094122766090557E+00,  7.238577474047243E-01, -3.031472558991155E-03, -8.372823984337165E-03, -2.067308260543557E-03,
2458920.500000000, A.D. 2020-Mar-12 00:00:00.0000,      69.185552, -3.123858243916221E+00,  1.052154667511534E+00,  7.134514229140916E-01, -2.910844543762236E-03, -8.414155541000733E-03, -2.095161789725054E-03,
2458925.500000000, A.D. 2020-Mar-17 00:00:00.0000,      69.185601, -3.138109309474170E+00,  1.009983819612676E+00,  7.029067317804459E-01, -2.789456475474107E-03, -8.453921741747975E-03, -2.122653955185808E-03,
2458930.500000000, A.D. 2020-Mar-22 00:00:00.0000,      69.185639, -3.151751571466520E+00,  9.676180786466875E-01,  6.922254952591517E-01, -2.667326091734793E-03, -8.492110814373141E-03, -2.149778982574989E-03,
2458935.500000000, A.D. 2020-Mar-27 00:00:00.0000,      69.185666, -3.164781363110243E+00,  9.250653594691718E-01,  6.814095634715971E-01, -2.544471346538605E-03, -8.528711090420376E-03, -2.176531099920853E-03,
2458940.500000000, A.D. 2020-Apr-01 00:00:00.0000,      69.185679, -3.177195107939158E+00,  8.823336350123602E-01,  6.704608153919475E-01, -2.420910413090695E-03, -8.563711008203979E-03, -2.202904538182227E-03,
2458945.500000000, A.D. 2020-Apr-06 00:00:00.0000,      69.185678, -3.188989320906759E+00,  8.394309357435213E-01,  6.593811588309589E-01, -2.296661686489057E-03, -8.597099115924874E-03, -2.228893531875151E-03,
2458950.500000000, A.D. 2020-Apr-11 00:00:00.0000,      69.185664, -3.200160609502041E+00,  7.963653491074301E-01,  6.481725304164483E-01, -2.171743786243022E-03, -8.628864074941614E-03, -2.254492319785181E-03,
2458955.500000000, A.D. 2020-Apr-16 00:00:00.0000,      69.185639, -3.210705674877546E+00,  7.531450189519603E-01,  6.368368955699939E-01, -2.046175558647189E-03, -8.658994663257239E-03, -2.279695145760057E-03,
2458960.500000000, A.D. 2020-Apr-21 00:00:00.0000,      69.185604, -3.220621312989028E+00,  7.097781449356175E-01,  6.253762484795152E-01, -1.919976079071847E-03, -8.687479779262220E-03, -2.304496259560736E-03,
2458965.500000000, A.D. 2020-Apr-26 00:00:00.0000,      69.185557, -3.229904415746537E+00,  6.662729819157044E-01,  6.137926120675138E-01, -1.793164654249916E-03, -8.714308445733570E-03, -2.328889917740890E-03,
2458970.500000000, A.D. 2020-May-01 00:00:00.0000,      69.185498, -3.238551972177065E+00,  6.226378393159263E-01,  6.020880379548981E-01, -1.665760824621276E-03, -8.739469814050597E-03, -2.352870384531301E-03,
2458975.500000000, A.D. 2020-May-06 00:00:00.0000,      69.185427, -3.246561069599089E+00,  5.788810804724872E-01,  5.902646064203894E-01, -1.537784366748795E-03, -8.762953168577496E-03, -2.376431932723474E-03,
2458980.500000000, A.D. 2020-May-11 00:00:00.0000,      69.185344, -3.253928894809368E+00,  5.350111219579008E-01,  5.783244263554972E-01, -1.409255295805017E-03, -8.784747931194091E-03, -2.399568844560160E-03,
2458985.500000000, A.D. 2020-May-16 00:00:00.0000,      69.185254, -3.260652735282496E+00,  4.910364328817818E-01,  5.662696352150285E-01, -1.280193868213276E-03, -8.804843665966551E-03, -2.422275412626127E-03,
2458990.500000000, A.D. 2020-May-21 00:00:00.0000,      69.185155, -3.266729980384310E+00,  4.469655341681428E-01,  5.541023989631961E-01, -1.150620584546975E-03, -8.823230083843435E-03, -2.444545940718385E-03,
2458995.500000000, A.D. 2020-May-26 00:00:00.0000,      69.185049, -3.272158122600101E+00,  4.028069978095155E-01,  5.418249120153676E-01, -1.020556192489162E-03, -8.839897047216478E-03, -2.466374744732542E-03,
2459000.500000000, A.D. 2020-May-31 00:00:00.0000,      69.184934, -3.276934758776904E+00,  3.585694460985022E-01,  5.294393971751381E-01, -8.900216894517722E-04, -8.854834574428396E-03, -2.487756153660533E-03,
2459005.500000000, A.D. 2020-Jun-05 00:00:00.0000,      69.184811, -3.281057591377814E+00,  3.142615508363550E-01,  5.169481055660518E-01, -7.590383247992577E-04, -8.868032844488619E-03, -2.508684510730290E-03,
2459010.500000000, A.D. 2020-Jun-10 00:00:00.0000,      69.184682, -3.284524429746972E+00,  2.698920325171819E-01,  5.043533165573701E-01, -6.276276019305873E-04, -8.879482202107689E-03, -2.529154174636972E-03,
2459015.500000000, A.D. 2020-Jun-15 00:00:00.0000,      69.184550, -3.287333191384978E+00,  2.254696594863516E-01,  4.916573376835583E-01, -4.958112803856462E-04, -8.889173162961056E-03, -2.549159520819591E-03,
